#cP2023  8  9  0  0  0.00000000      96 ORBIT IGS20 HLM  IGS
## 2274 259200.00000000   900.00000000 60165 0.0000000000000
+   31   G01G02G03G04G05G06G07G08G09G10G11G12G13G14G15G16G17
+        G18G19G20G21G23G24G25G26G27G28G29G30G31G32  0  0  0
+          0  0  0  0  0  0  0  0  0  0  0  0  0  0  0  0  0
+          0  0  0  0  0  0  0  0  0  0  0  0  0  0  0  0  0
+          0  0  0  0  0  0  0  0  0  0  0  0  0  0  0  0  0
++         2  2  2  3  2  2  2  2  2  3  2  2  2  2  2  2  2
++         2  2  2  2  2  2  2  2  2  2  2  2  2  3  0  0  0
++         0  0  0  0  0  0  0  0  0  0  0  0  0  0  0  0  0
++         0  0  0  0  0  0  0  0  0  0  0  0  0  0  0  0  0
++         0  0  0  0  0  0  0  0  0  0  0  0  0  0  0  0  0
%c G  cc GPS ccc cccc cccc cccc cccc ccccc ccccc ccccc ccccc
%c cc cc ccc ccc cccc cccc cccc cccc ccccc ccccc ccccc ccccc
%f  1.2500000  1.025000000  0.00000000000  0.000000000000000
%f  0.0000000  0.000000000  0.00000000000  0.000000000000000
%i    0    0    0    0      0      0      0      0         0
%i    0    0    0    0      0      0      0      0         0
/* RAPID ORBIT COMBINATION FROM WEIGHTED AVERAGE OF:        
/* cod emr esa gfz grg jgx jpl ngs sio usn whu              
/* REFERENCED TO IGS TIME (IGST) AND TO WEIGHTED MEAN POLE: 
/* PCV:IGS20      OL/AL:FES2014b NONE     Y  ORB:CMB CLK:CMB
*  2023  8  9 23 15  0.00000000
PG01 -16721.621000  -5728.790511  19593.582453    169.213005  8 10  9 115       
PG02 -18896.170215 -10749.244969  15870.543617   -567.183364  7  7  8 127       
PG03 -18691.573801   6335.422884  17572.941413   -194.575467  7  5  5 118       
PG04 -26295.370370    -91.191572  -4160.247275    120.853710 11  6  8 122       
PG05  11865.452446   9564.958663 -21931.144752   -138.193625  7  4  3 120       
PG06   3925.270335  24223.875968  10103.209471    568.361644  2  7  6 103       
PG07 -10787.634880  11761.163231 -20685.473613    100.350280  6  7  4  95       
PG08 -24975.205207  -6389.490495  -7277.429679   -136.394416  8  5  9 114       
PG09 -22180.899941   7627.844702 -12579.846839    -90.705125  9  6  6  64       
PG10   9645.268596 -23347.770639   7830.734915    -48.636019  6  8  7  73       
PG11  12629.743640  23041.583069  -4032.451705   -313.699494  6  5  6 109       
PG12  18074.734570  -1431.417129  19106.175389   -411.007976  7  5  7 100       
PG13  19138.402427  13379.053476 -13042.030757    558.111332 10  6  6 130       
PG14 -12637.381684  22808.125494   4586.046366    149.127923  4  7  4  79       
PG15  25624.504368   3578.834203  -7031.702160     66.126157  8  5  8 127       
PG16  -7584.888990 -14133.083469 -21401.641398   -470.287430  5  5  7 106       
PG17  -7399.718549  13935.947193  21812.115629    722.468564  6  8  7 116       
PG18   8837.117179 -14278.031430 -20534.700271   -376.857736  8  7  5 105       
PG19   1839.956742  15248.906642  21495.526387    355.506627  9  6  9 107       
PG20   5222.596537  19067.612178 -17788.368417    418.080778  8  4  7 118       
PG21 -19140.170279 -13605.219574  13755.056188    150.976370  7  8  5 125       
PG23  16725.059832 -19962.883298  -4734.395168     53.156612  5  5  5 120       
PG24  19096.760193   9113.907550  15930.344018   -284.860130  4  6  6  96       
PG25  18989.189439 -14765.520225  10650.030605    461.240163  6  6  5 111       
PG26     -1.029364 -21857.963152 -14966.681721    233.541418  7  1  6 110       
PG27 -16593.912862 -12846.118694 -16773.381399    -19.153760 10  7  5 121       
PG28  -3175.715156 -23672.415954  11600.932059     77.501683  6  4  7  99       
PG29  23084.178862  -4859.033770 -12358.108998   -607.459654  7  7  9 108       
PG30  -3818.538865  20339.111102 -16381.000542   -497.724945  5  8  6 114       
PG31 -10029.641009 -24305.454803   1155.202195   -221.574817  8  6  8 124       
PG32   2507.060706 -15143.946065  21850.920128   -537.649750  5  6  9 116       
*  2023  8  9 23 30  0.00000000
PG01 -17627.228312  -7741.516098  18106.249031    169.211732  8 10 10  99       
PG02 -19621.053019 -12194.232751  13749.753732   -567.179538  7  7  9 122       
PG03 -17641.102477   4481.139416  19155.774834   -194.559339  7  6  5 115       
PG04 -26589.244261   -352.575000  -1328.609197    120.863932 12  7  8 120       
PG05  10611.588437  11666.796709 -21540.391322   -138.195330  6  4  3 116       
PG06   3206.769189  23141.199838  12607.887964    568.357091  2  7  6  87       
PG07 -11997.829220   9567.822416 -21176.933949    100.340291  5  7  4 102       
PG08 -24009.241999  -6585.192224  -9875.609050   -136.395919  9  4  9 113       
PG09 -23464.861076   7375.120807 -10156.145097    -90.696300 10  6  6  62       
PG10  10213.057872 -23840.312703   5046.300486    -48.637351  7  8  7  83       
PG11  12538.538007  23412.255186  -1190.462503   -313.714941  6  5  6  95       
PG12  16784.023476    486.972072  20284.700111   -411.012021  7  6  7  89       
PG13  17556.680374  13242.466432 -15233.912301    558.115540 10  6  6 123       
PG14 -13092.176618  22938.438471   1777.903709    149.138428  4  7  4  89       
PG15  24763.904553   3944.068697  -9599.948521     66.129235  8  6  8 123       
PG16  -6082.143479 -15936.234635 -20546.821934   -470.282887  6  5  8 113       
PG17  -9738.512826  13635.425290  21064.571139    722.468943  7  8  7  97       
PG18   9963.501192 -12159.596034 -21380.677025   -376.869893  8  7  5 112       
PG19   -649.048472  14878.576616  21789.643841    355.511311  9  6  9 104       
PG20   4312.306548  20787.012539 -16039.735200    418.078933  8  4  7 111       
PG21 -19740.502475 -14807.880823  11450.724501    150.975920  7  8  6 128       
PG23  16550.789806 -19247.052274  -7512.475718     53.160642  5  5  6 117       
PG24  19857.776822  10717.301156  13962.120939   -284.870594  5  6  6  97       
PG25  18464.470758 -13432.225948  13029.114809    461.242133  7  6  5 101       
PG26    999.691067 -23125.179288 -12830.901030    233.540133  7  2  6 109       
PG27 -14634.240483 -12879.158663 -18474.263820    -19.159892 10  7  4 131       
PG28  -2279.439122 -22498.309770  13913.252781     77.498865  6  5  7 105       
PG29  24313.332885  -4531.487094  -9874.065763   -607.460201  9  7  9 115       
PG30  -4914.787535  18645.199588 -18033.686169   -497.722270  5  8  5 115       
PG31  -9614.292005 -24153.985733   4002.256174   -221.575292  8  7  8 127       
PG32   4947.207859 -15015.874676  21499.989403   -537.656088  5  6  9 123       
*  2023  8  9 23 45  0.00000000
PG01 -18550.396255  -9532.020076  16302.665062    169.210396  8 10 11  78       
PG02 -20278.398281 -13398.172129  11400.779461   -567.175816  7  7  9 115       
PG03 -16614.480289   2431.223045  20403.878250   -194.543240  7  7  6 117       
PG04 -26575.466477   -591.033779   1525.734199    120.874140 12  7  9 130       
PG05   9500.139684  13776.337324 -20784.637797   -138.196389  6  4  2 117       
PG06   2291.758157  21866.109223  14895.277284    568.352627  3  7  6  96       
PG07 -13329.142603   7410.006792 -21286.755811    100.330670  5  8  4 119       
PG08 -22772.898759  -6843.293921 -12308.014286   -136.397080 10  4  9 110       
PG09 -24477.246796   7178.690792  -7558.645620    -90.687603 11  6  7  58       
PG10  10597.831329 -24080.739176   2173.667455    -48.638598  7  9  8  98       
PG11  12316.059199  23501.935141   1671.961574   -313.730380  6  4  6  92       
PG12  15531.543403   2565.990529  21105.081470   -411.016296  7  6  8  89       
PG13  15740.219031  13162.881306 -17169.216461    558.119700 10  6  6 123       
PG14 -13374.849135  22816.630335  -1061.142125    149.148972  5  7  4 102       
PG15  23650.106452   4390.270827 -12008.293627     66.132457  8  6  8 129       
PG16  -4738.559159 -17724.850681 -19344.147263   -470.278587  6  4  8 114       
PG17 -11988.638174  13469.435380  19968.725647    722.469655  7  8  8  95       
PG18  11239.129803 -10041.323170 -21857.843020   -376.882056  8  8  6 108       
PG19  -3169.425190  14640.279210  21701.684080    355.515943  9  6  9 104       
PG20   3562.301307  22348.718378 -14016.537424    418.077183  9  4  8 112       
PG21 -20251.022582 -15763.731915   8962.969180    150.975230  7  8  6 126       
PG23  16272.314788 -18249.312849 -10159.983515     53.164729  6  6  6 125       
PG24  20556.421980  12085.729862  11752.909458   -284.881071  5  6  7  98       
PG25  17883.029178 -11845.364145  15176.968302    461.244115  7  6  5 106       
PG26   1832.723546 -24209.625795 -10471.940634    233.538852  7  2  7 116       
PG27 -12505.205907 -13021.707277 -19867.652654    -19.166024 10  6  4 137       
PG28  -1188.758417 -21163.513783  15985.876343     77.496064  6  6  7 105       
PG29  25268.842498  -4289.548905  -7221.419438   -607.461211  9  7  9 112       
PG30  -6174.679591  16859.273444 -19370.416608   -497.719547  6  9  5 124       
PG31  -9032.803279 -23743.419874   6778.378889   -221.575956  8  7  9 122       
PG32   7333.100409 -15014.563953  20784.353441   -537.662381  4  6  9 121       
EOF
